STARLINK-33574          
1 62774U 25015S   25029.58335648 -.00897794  00000+0 -31288-2 0  9998
2 62774  53.1602  47.2049 0000806  64.9754 280.5039 15.90603557  2055
STARLINK-33576          
1 62775U 25015T   25029.58335648 -.00989556  29641-3 -31169-2 0  9991
2 62775  53.1603  47.2008 0001039  53.7101 293.7774 15.90662470  2436
STARLINK-33570          
1 62776U 25015U   25029.58335648 -.00998178  30131-3 -31328-2 0  9995
2 62776  53.1605  47.1963 0001009  49.4619 300.3554 15.90734270  2430
STARLINK-33591          
1 62777U 25015V   25029.16668981 -.01042345  32875-3 -31239-2 0  9994
2 62777  53.1608  49.3109 0001051  84.1218  39.5952 15.91639401  2432
STARLINK-33573          
1 62778U 25015W   25029.16668981 -.01045299  33070-3 -31194-2 0  9994
2 62778  53.1608  49.3055 0000930  78.9242  47.2921 15.91722752  2430
STARLINK-33568          
1 62779U 25015X   25029.58335648 -.01030335  31974-3 -32015-2 0  9991
2 62779  53.1605  47.1828 0000831  63.7402 292.4058 15.90936088  2334
STARLINK-33593          
1 62780U 25015Y   25029.16668981 -.01054890  33669-3 -31252-2 0  9993
2 62780  53.1606  49.2967 0000930  78.9042  51.4047 15.91864984  2430
STARLINK-33588          
1 62781U 25015Z   25029.16668981 -.01062583  34140-3 -31364-2 0  9991
2 62781  53.1607  49.2924 0000813  83.9423  48.3707 15.91937728  2439
STARLINK-33585          
1 62782U 25015AA  25029.58335648 -.01090351  35510-3 -33498-2 0  9995
2 62782  53.1602  47.1686 0000854  51.4497 311.7713 15.91167828  2220
STARLINK-33582          
1 62783U 25015AB  25029.58335648 -.01113815  36961-3 -33970-2 0  9993
2 62783  53.1601  47.1576 0000914  54.6996 313.5235 15.91313828  2439
STARLINK-33581          
1 62784U 25015AC  25029.16668981 -.01075828  34970-3 -31492-2 0  9993
2 62784  53.1607  49.2833 0001082  78.3439  58.5800 15.92099809  2432
TJS-14                  
1 62804U 25017A   25023.82423642  .00000227 -39377-6  00000+0 0  9994
2 62804  28.4771 353.3842 7305768 179.8015 132.0558  2.28112302    01
CZ-3B R/B               
1 62805U 25017B   25029.31736171  .00074274  95925-6  13082-2 0  9999
2 62805  28.4536 351.2724 7237426 182.5501 169.3433  2.38611425   133
NVS-02 (IRNSS-1K)       
1 62850U 25020A   25029.18490196  .00000383 -36541-6  00000+0 0  9995
2 62850  20.6718  82.8964 7411345 178.0887 107.0480  2.16250825    09
GSLV R/B                
1 62851U 25020B   25029.18913162  .00000379 -36079-6  00000+0 0  9990
2 62851  19.7945  83.7579 7391978 177.2843 111.2669  2.17850696    04
